NORAD_CAT_ID,OBJECT_NAME,OBJECT_TYPE,EPOCH,MEAN_MOTION,ECCENTRICITY,INCLINATION,RA_OF_ASC_NODE,ARG_OF_PERICENTER,MEAN_ANOMALY,BSTAR,MEAN_MOTION_DOT,MEAN_MOTION_DDOT,TLE_LINE0,TLE_LINE1,TLE_LINE2,SEMIMAJOR_AXIS,PERIOD,APOGEE,PERIGEE,DECAYED
51791.0,STARLINK-3602,PAYLOAD,2022-08-04 22:00:00,15.08855949,0.0002339,53.216,122.3812,58.4217,352.7063,-0.0018695999999999,-0.00029934,0.0,0 STARLINK-3602,1 51791U 22017Z   22216.91667824 -.00029934  00000-0 -18696-2 0  9992,2 51791  53.2160 122.3812 0002339  58.4217 352.7063 15.08855949 25732,6917.831999999999,95.437,541.315,538.0790000000002,0.0
51791.0,STARLINK-3602,PAYLOAD,2022-08-05 14:00:01,15.08813398,0.0002171999999999,53.2156,119.3872,60.7017,13.7037,0.0014712999999999,0.00023189,0.0,0 STARLINK-3602,1 51791U 22017Z   22217.58335648  .00023189  00000-0  14713-2 0  9992,2 51791  53.2156 119.3872 0002172  60.7017  13.7037 15.08813398  1302,6917.962,95.439,541.3290000000002,538.3240000000002,0.0
51791.0,STARLINK-3602,PAYLOAD,2022-08-05 22:00:00,15.08841563,0.0002283,53.2156,117.8921,59.2618,26.6526,-0.001746,-0.00027971,0.0,0 STARLINK-3602,1 51791U 22017Z   22217.91667824 -.00027971  00000-0 -17460-2 0  9990,2 51791  53.2156 117.8921 0002283  59.2618  26.6526 15.08841563  1304,6917.876,95.437,541.32,538.161,0.0
51791.0,STARLINK-3602,PAYLOAD,2022-08-06 14:00:01,15.08814551,0.0002208,53.2154,114.8981,62.3363,46.757,0.0028343,0.00045078,0.0,0 STARLINK-3602,1 51791U 22017Z   22218.58334491  .00045078  00000-0  28343-2 0  9993,2 51791  53.2154 114.8981 0002208  62.3363  46.7570 15.08814551  1303,6917.958000000001,95.439,541.351,538.2959999999998,0.0
51791.0,STARLINK-3602,PAYLOAD,2022-08-06 21:28:04,15.08841452,0.0002356999999999,53.2174,113.5013,59.3786,300.7438,6.8894e-05,8.08e-06,0.0,0 STARLINK-3602,1 51791U 22017Z   22218.89449540  .00000808  00000-0  68894-4 0  9998,2 51791  53.2174 113.5013 0002357  59.3786 300.7438 15.08841452 26030,6917.876,95.437,541.371,538.11,0.0
51791.0,STARLINK-3602,PAYLOAD,2022-08-07 06:00:00,15.08855371,0.0002362,53.2154,111.907,57.2675,75.0048,-0.0014661,-0.00023556,0.0,0 STARLINK-3602,1 51791U 22017Z   22219.25001157 -.00023556  00000-0 -14661-2 0  9995,2 51791  53.2154 111.9070 0002362  57.2675  75.0048 15.08855371 26082,6917.833000000001,95.437,541.332,538.064,0.0
51791.0,STARLINK-3602,PAYLOAD,2022-08-07 11:46:32,15.0884824,0.0002209,53.2169,110.8246,61.5631,298.5583,8.0296e-05,9.9e-06,0.0,0 STARLINK-3602,1 51791U 22017Z   22219.49064964  .00000990  00000-0  80296-4 0  9990,2 51791  53.2169 110.8246 0002209  61.5631 298.5583 15.08848240 26129,6917.855,95.437,541.248,538.192,0.0
51791.0,STARLINK-3602,PAYLOAD,2022-08-07 21:18:51,15.08836976,0.0002218,53.2169,109.0413,62.76300000000001,297.3588,0.00010835,1.436e-05,0.0,0 STARLINK-3602,1 51791U 22017Z   22219.88809577  .00001436  00000-0  10835-3 0  9997,2 51791  53.2169 109.0413 0002218  62.7630 297.3588 15.08836976 26188,6917.89,95.438,541.289,538.22,0.0
51791.0,STARLINK-3602,PAYLOAD,2022-08-07 22:00:00,15.08842227,0.0002326,53.2158,108.914,60.49100000000001,94.9724,-0.0011454,-0.00018473,0.0,0 STARLINK-3602,1 51791U 22017Z   22219.91667824 -.00018473  00000-0 -11454-2 0  9996,2 51791  53.2158 108.9140 0002326  60.4910  94.9724 15.08842227 26186,6917.874,95.437,541.3480000000002,538.129,0.0
51791.0,STARLINK-3602,PAYLOAD,2022-08-08 14:00:01,15.08852659,0.0002201999999999,53.2161,105.9198,63.1496,115.5889,0.0010354,0.00016235,0.0,0 STARLINK-3602,1 51791U 22017Z   22220.58335648  .00016235  00000-0  10354-2 0  9997,2 51791  53.2161 105.9198 0002202  63.1496 115.5889 15.08852659  1301,6917.842,95.437,541.23,538.183,0.0
51791.0,STARLINK-3602,PAYLOAD,2022-08-08 22:00:00,15.08859773,0.0002268,53.2164,104.425,59.4392,130.8573,-0.0015536,-0.00024943,0.0,0 STARLINK-3602,1 51791U 22017Z   22220.91667824 -.00024943  00000-0 -15536-2 0  9992,2 51791  53.2164 104.4250 0002268  59.4392 130.8573 15.08859773  1306,6917.82,95.436,541.254,538.116,0.0
51791.0,STARLINK-3602,PAYLOAD,2022-08-09 06:00:00,15.08859336,0.0002186999999999,53.2165,102.9287,55.9271,145.972,-0.0034152,-0.00054263,0.0,0 STARLINK-3602,1 51791U 22017Z   22221.25001157 -.00054263  00000-0 -34152-2 0  9994,2 51791  53.2165 102.9287 0002187  55.9271 145.9720 15.08859336 26388,6917.821,95.436,541.1990000000002,538.173,0.0
51791.0,STARLINK-3602,PAYLOAD,2022-08-09 14:00:01,15.08795783,0.0001998,53.2168,101.4308,60.285,153.2102,0.002327,0.00036896,0.0,0 STARLINK-3602,1 51791U 22017Z   22221.58334491  .00036896  00000-0  23270-2 0  9999,2 51791  53.2168 101.4308 0001998  60.2850 153.2102 15.08795783  1306,6918.016,95.44,541.263,538.498,0.0
51791.0,STARLINK-3602,PAYLOAD,2022-08-09 22:00:00,15.08821299,0.0002157,53.2169,99.9362,57.0272,168.0267,-0.00040112,-6.663e-05,0.0,0 STARLINK-3602,1 51791U 22017Z   22221.91667824 -.00006663  00000-0 -40112-3 0  9991,2 51791  53.2169  99.9362 0002157  57.0272 168.0267 15.08821299 26482,6917.938,95.439,541.295,538.31,0.0
51791.0,STARLINK-3602,PAYLOAD,2022-08-10 14:00:01,15.08818122,0.0002034,53.2171,96.942,61.9745,186.2357,0.0028473,0.00045292,0.0,0 STARLINK-3602,1 51791U 22017Z   22222.58334491  .00045292  00000-0  28473-2 0  9990,2 51791  53.2171  96.9420 0002034  61.9745 186.2357 15.08818122  1307,6917.946999999999,95.439,541.219,538.405,0.0
51791.0,STARLINK-3602,PAYLOAD,2022-08-10 17:07:18,15.08845148,0.0002089999999999,53.2173,96.3587,62.738,172.3568,4.9593e-05,5.01e-06,0.0,0 STARLINK-3602,1 51791U 22017Z   22222.71341435  .00000501  00000-0  49593-4 0  9993,2 51791  53.2173  96.3587 0002090  62.7380 172.3568 15.08845148 26601,6917.865,95.437,541.175,538.284,0.0
51791.0,STARLINK-3602,PAYLOAD,2022-08-10 22:00:00,15.08843557,0.0002179,53.2171,95.4473,58.1845,201.6111,-0.00033811,-5.666e-05,0.0,0 STARLINK-3602,1 51791U 22017Z   22222.91667824 -.00005666  00000-0 -33811-3 0  9992,2 51791  53.2171  95.4473 0002179  58.1845 201.6111 15.08843557  1308,6917.87,95.437,541.242,538.227,0.0
51791.0,STARLINK-3602,PAYLOAD,2022-08-11 14:00:01,15.08811165,0.0001943999999999,53.217,92.4529,62.8189,220.1748,0.0026179,0.00041589,0.0,0 STARLINK-3602,1 51791U 22017Z   22223.58334491  .00041589  00000-0  26179-2 0  9997,2 51791  53.2170  92.4529 0001944  62.8189 220.1748 15.08811165  1300,6917.969,95.439,541.178,538.489,0.0
51791.0,STARLINK-3602,PAYLOAD,2022-08-11 22:00:00,15.08834548,0.0002084,53.2168,90.9582,58.2571,236.3163,-0.00029895,-5.042e-05,0.0,0 STARLINK-3602,1 51791U 22017Z   22223.91667824 -.00005042  00000-0 -29895-3 0  9998,2 51791  53.2168  90.9582 0002084  58.2571 236.3163 15.08834548 26788,6917.897,95.438,541.2040000000002,538.32,0.0
51791.0,STARLINK-3602,PAYLOAD,2022-08-12 14:00:01,15.08850475,0.0001882,53.2165,87.9636,64.6511,253.1172,0.00023704,3.487e-05,0.0,0 STARLINK-3602,1 51791U 22017Z   22224.58334491  .00003487  00000-0  23704-3 0  9995,2 51791  53.2165  87.9636 0001882  64.6511 253.1172 15.08850475 26886,6917.848000000001,95.437,541.015,538.411,0.0
51791.0,STARLINK-3602,PAYLOAD,2022-08-12 22:00:01,15.08829609,0.0001984,53.2163,86.4689,58.6697,270.7709,-7.2084e-05,-1.435e-05,0.0,0 STARLINK-3602,1 51791U 22017Z   22224.91668981 -.00001435  00000-0 -72084-4 0  9995,2 51791  53.2163  86.4689 0001984  58.6697 270.7709 15.08829609  1303,6917.9119999999975,95.438,541.15,538.405,0.0
51791.0,STARLINK-3602,PAYLOAD,2022-08-13 06:00:02,15.08863306,0.0001869,53.2158,84.9717,57.9342,283.0812,-0.0043888,-0.00069508,0.0,0 STARLINK-3602,1 51791U 22017Z   22225.25002315 -.00069508  00000-0 -43888-2 0  9999,2 51791  53.2158  84.9717 0001869  57.9342 283.0812 15.08863306 26988,6917.809,95.436,540.967,538.381,0.0
51791.0,STARLINK-3602,PAYLOAD,2022-08-13 14:00:01,15.08827247,0.0001878,53.2168,83.4735,61.7358,290.8234,-0.0049336,-0.00077932,0.0,0 STARLINK-3602,1 51791U 22017Z   22225.58334491 -.00077932  00000-0 -49336-2 0  9992,2 51791  53.2168  83.4735 0001878  61.7358 290.8234 15.08827247  1300,6917.919,95.438,541.0840000000002,538.485,0.0
51791.0,STARLINK-3602,PAYLOAD,2022-08-13 22:00:00,15.08832142,0.0002031,53.2175,81.9793,55.6193,308.4644,0.00052824,8.127e-05,0.0,0 STARLINK-3602,1 51791U 22017Z   22225.91667824  .00008127  00000-0  52824-3 0  9993,2 51791  53.2175  81.9793 0002031  55.6193 308.4644 15.08832142  1307,6917.904,95.438,541.174,538.364,0.0
51791.0,STARLINK-3602,PAYLOAD,2022-08-14 14:00:01,15.08824821,0.0001804,53.2155,78.9848,65.2135,322.0751,0.0019385,0.00030685,0.0,0 STARLINK-3602,1 51791U 22017Z   22226.58334491  .00030685  00000-0  19385-2 0  9996,2 51791  53.2155  78.9848 0001804  65.2135 322.0751 15.08824821  1308,6917.927,95.439,541.04,538.544,0.0
51791.0,STARLINK-3602,PAYLOAD,2022-08-14 22:00:00,15.08831875,0.0001961,53.2155,77.4901,59.0971,339.7802,0.00042161,6.427e-05,0.0,0 STARLINK-3602,1 51791U 22017Z   22226.91667824  .00006427  00000-0  42161-3 0  9998,2 51791  53.2155  77.4901 0001961  59.0971 339.7802 15.08831875  1304,6917.905,95.438,541.127,538.414,0.0
51791.0,STARLINK-3602,PAYLOAD,2022-08-15 00:00:00,15.08816018,0.0001936,53.2156,77.1161,57.4367,74.3433,0.0028895,0.00045969,0.0,0 STARLINK-3602,1 51791U 22017Z   22227.00001157  .00045969  00000-0  28895-2 0  9991,2 51791  53.2156  77.1161 0001936  57.4367  74.3433 15.08816018 27259,6917.954000000002,95.439,541.158,538.479,0.0
51791.0,STARLINK-3602,PAYLOAD,2022-08-15 14:00:01,15.08831699,0.0001793,53.2157,74.4952,64.1943,357.8728,-0.00013483,-2.433e-05,0.0,0 STARLINK-3602,1 51791U 22017Z   22227.58334491 -.00002433  00000-0 -13483-3 0  9993,2 51791  53.2157  74.4952 0001793  64.1943 357.8728 15.08831699  1300,6917.906,95.438,541.011,538.53,0.0
51791.0,STARLINK-3602,PAYLOAD,2022-08-15 16:00:00,15.08840171,0.0001794,53.2159,74.1216,62.7038,92.2567,-0.0014573,-0.00023407,0.0,0 STARLINK-3602,1 51791U 22017Z   22227.66667824 -.00023407  00000-0 -14573-2 0  9995,2 51791  53.2159  74.1216 0001794  62.7038  92.2567 15.08840171 27351,6917.88,95.438,540.986,538.504,0.0
